DMSP 5D-3 F16 (USA 172) 
1 28054U 03048A   26168.88435507 -.00000028  00000+0  91876-5 0  9993
2 28054  98.9890 192.7173 0007785 138.4256 345.7380 14.14483189169582
METEOSAT-9 (MSG-2)      
1 28912U 05049B   26168.83963522  .00000114  00000+0  00000+0 0  9995
2 28912   9.3634  54.1628 0001660 344.5140 215.3198  1.00272435  7009
DMSP 5D-3 F17 (USA 191) 
1 29522U 06050A   26168.80609800 -.00000020  00000+0  11871-4 0  9999
2 29522  98.7378 175.3635 0011153  57.7719 302.4534 14.14993052 12519
FENGYUN 3A              
1 32958U 08026A   26168.82264941  .00000055  00000+0  46601-4 0  9992
2 32958  98.6883 109.6439 0009615 121.9890 238.2222 14.19571285935498
GOES 14                 
1 35491U 09033A   26168.87311771 -.00000300  00000+0  00000+0 0  9997
2 35491   1.6926  83.0322 0001784  11.7115 267.1319  1.00110635  6598
DMSP 5D-3 F18 (USA 210) 
1 35951U 09057A   26168.84823449  .00000216  00000+0  13477-3 0  9992
2 35951  98.9037 149.6158 0009907 247.4110 112.6015 14.14897107859683
EWS-G2 (GOES 15)        
1 36411U 10008A   26168.20650306  .00000013  00000+0  00000+0 0  9991
2 36411   1.2783  82.8597 0005417  42.2932 278.3795  1.00275998 59631
COMS 1                  
1 36744U 10032A   26168.83950402  .00000066  00000+0  00000+0 0  9994
2 36744   4.8074  75.3468 0011531  11.8661 191.9386  0.99162618 51090
FENGYUN 3B              
1 37214U 10059A   26168.87914669 -.00000295  00000+0 -12923-3 0  9992
2 37214  98.9615 214.8967 0021921 181.9492 288.1437 14.14840052807527
SUOMI NPP               
1 37849U 11061A   26168.83394587  .00000054  00000+0  46513-4 0  9991
2 37849  98.7953 109.7056 0001499   5.0948 355.0243 14.19517506758530
METEOSAT-10 (MSG-3)     
1 38552U 12035B   26167.91989406 -.00000009  00000+0  00000+0 0  9990
2 38552   4.6715  61.0232 0001486 328.8582 206.8187  1.00276823 50856
METOP-B                 
1 38771U 12049A   26168.82314677  .00000079  00000+0  55884-4 0  9992
2 38771  98.6504 220.3097 0002197  18.1455 341.9801 14.21432878713351
INSAT-3D                
1 39216U 13038B   26168.85120405 -.00000345  00000+0  00000+0 0  9995
2 39216   1.9285  82.5305 0000577 315.2630 304.2400  1.00268872 47086
FENGYUN 3C              
1 39260U 13052A   26168.82122313  .00000057  00000+0  50054-4 0  9995
2 39260  98.4987 142.6669 0015227  25.8728 334.3205 14.15755109658658
METEOR-M 2              
1 40069U 14037A   26168.84950384 -.00000050  00000+0 -34188-5 0  9993
2 40069  98.5113 144.5645 0006728  42.6891 317.4808 14.21461001619412
HIMAWARI-8              
1 40267U 14060A   26168.85337073 -.00000281  00000+0  00000+0 0  9999
2 40267   0.0105  24.5790 0001032  66.1744 263.2277  1.00271407 42768
FENGYUN 2G              
1 40367U 14090A   26168.77395412 -.00000310  00000+0  00000+0 0  9998
2 40367   5.6410  72.8081 0004013 158.0009  53.5218  1.00271765 42004
METEOSAT-11 (MSG-4)     
1 40732U 15034A   26168.25712117  .00000060  00000+0  00000+0 0  9992
2 40732   3.2014  71.1096 0001741  11.8883 284.7520  1.00280400  7217
ELEKTRO-L 2             
1 41105U 15074A   26167.63786162 -.00000124  00000+0  00000+0 0  9995
2 41105   6.6931  70.5258 0000972 242.2635 167.2330  1.00270425 38506
SENTINEL-3A             
1 41335U 16011A   26168.84772130  .00000092  00000+0  56200-4 0  9997
2 41335  98.6249 236.2219 0001407 101.8413 258.2926 14.26740180538150
INSAT-3DR               
1 41752U 16054A   26168.84019735 -.00000082  00000+0  00000+0 0  9994
2 41752   0.1083  86.2823 0010565 187.5513   8.6946  1.00270968 35823
HIMAWARI-9              
1 41836U 16064A   26168.85337073 -.00000280  00000+0  00000+0 0  9997
2 41836   0.0155 283.0038 0000938 207.6136 223.4578  1.00270553 35219
GOES 16                 
1 41866U 16071A   26168.66217425 -.00000096  00000+0  00000+0 0  9990
2 41866   0.3432  85.5123 0000233 311.7942   2.2946  1.00271031 35105
FENGYUN 4A              
1 41882U 16077A   26168.65560394 -.00000363  00000+0  00000+0 0  9996
2 41882   2.3247  80.2847 0008604 153.2146  32.1766  1.00268375 34938
CYGFM05                 
1 41884U 16078A   26168.62835140  .00019269  00000+0  26108-3 0  9995
2 41884  34.9565 257.6688 0007011 155.8630 204.2423 15.56688646528825
CYGFM04                 
1 41885U 16078B   26168.53365447  .00023569  00000+0  26530-3 0  9991
2 41885  34.9311 225.9685 0006748 198.5401 161.5079 15.61530426529052
CYGFM02                 
1 41886U 16078C   26168.53367601  .00027107  00000+0  27097-3 0  9997
2 41886  34.9390 220.4939 0007770 199.5292 160.5137 15.64521931529224
CYGFM01                 
1 41887U 16078D   26168.61687454  .00019933  00000+0  26326-3 0  9990
2 41887  34.9394 258.7983 0006779 149.0020 211.1105 15.57366631528772
CYGFM08                 
1 41888U 16078E   26168.57561980  .00022448  00000+0  26759-3 0  9996
2 41888  34.9420 238.6407 0008409 181.0555 179.0154 15.60037208529037
CYGFM07                 
1 41890U 16078G   26168.53473553  .00021393  00000+0  25426-3 0  9991
2 41890  34.9433 227.2545 0007144 197.5321 162.5158 15.60133044529057
CYGFM03                 
1 41891U 16078H   26168.56973259  .00022653  00000+0  26922-3 0  9995
2 41891  34.9388 228.9588 0006561 185.7876 174.2774 15.60130523529039
